STARLINK-30397          
1 57771U 23134A   26068.35850402 -.00005090  00000+0 -17551-3 0  9996
2 57771  42.9993 196.5752 0000740 162.6936 197.3941 15.27596688139457
STARLINK-30494          
1 57970U 23151G   26068.36049035 -.00001272  00000+0 -35691-4 0  9993
2 57970  43.0027 192.4566 0001155 241.5536 118.5200 15.28417441137406
